ONEWEB-0320             
1 49190U 21083E   26196.84348890  .00000025  00000+0  31883-4 0  9998
2 49190  87.9187 329.7618 0001941  99.1749 260.9603 13.18687533233756
ONEWEB-0321             
1 49191U 21083F   26196.15529735  .00000121  00000+0  26468-3 0  9991
2 49191  87.9185 268.8617 0002143 104.3143 255.8228 13.20773279240524
ONEWEB-0322             
1 49192U 21083G   26196.87435781 -.00000019  00000+0 -87337-4 0  9999
2 49192  87.8978 314.5262 0002066 113.1121 247.0226 13.13469656234681
ONEWEB-0324             
1 49193U 21083H   26196.89240440 -.00000049  00000+0 -15788-3 0  9991
2 49193  87.9199 329.7428 0002077  95.5921 264.5448 13.18686501233788
ONEWEB-0325             
1 49194U 21083J   26196.89576634  .00000032  00000+0  47436-4 0  9995
2 49194  87.9189 329.7476 0001810  99.9921 260.1416 13.18687636233791
ONEWEB-0326             
1 49195U 21083K   26196.91109984 -.00000080  00000+0 -23625-3 0  9997
2 49195  87.9197 329.7446 0001691  93.4768 266.6558 13.18686207233783
ONEWEB-0327             
1 49196U 21083L   26196.91081959 -.00000055  00000+0 -17287-3 0  9998
2 49196  87.9189 329.7466 0001498  93.8468 266.2835 13.18686215233809
ONEWEB-0328             
1 49197U 21083M   26196.86420193  .00000253  00000+0  65883-3 0  9993
2 49197  87.8989 314.5041 0002048  97.5035 262.6327 13.13469534234660
ONEWEB-0331             
1 49198U 21083N   26196.82832731 -.00000050  00000+0 -15910-3 0  9998
2 49198  87.9199 329.7548 0001710  88.5452 271.5876 13.18684316233785
ONEWEB-0333             
1 49199U 21083P   26196.85912327  .00000348  00000+0  91894-3 0  9995
2 49199  87.8980 314.5289 0001865 100.4829 259.6510 13.13469688234679
ONEWEB-0334             
1 49200U 21083Q   26196.24535218  .00000102  00000+0  21969-3 0  9995
2 49200  87.9185 268.8544 0002484 117.8612 242.2773 13.20769592240496
ONEWEB-0335             
1 49201U 21083R   26196.85404304  .00000325  00000+0  85385-3 0  9993
2 49201  87.8976 314.5273 0001830  95.2512 264.8826 13.13468911234680
ONEWEB-0336             
1 49202U 21083S   26196.82525683 -.00000234  00000+0 -67473-3 0  9994
2 49202  87.8976 314.5280 0001836  90.9707 269.1633 13.13469343234676
ONEWEB-0337             
1 49203U 21083T   26196.83528853 -.00000019  00000+0 -85972-4 0  9994
2 49203  87.8976 314.5315 0002070  95.0727 265.0638 13.13469605234676
ONEWEB-0338             
1 49204U 21083U   26196.60141289  .00000055  00000+0  10254-3 0  9992
2 49204  87.9181 268.7843 0002151 107.1733 252.9636 13.20770214240561
ONEWEB-0339             
1 49205U 21083V   26196.76770826  .00000196  00000+0  50212-3 0  9999
2 49205  87.8978 314.5382 0002163 106.7470 253.3896 13.13469359234641
