{"fetched_at":"2026-07-16T06:42:33.601Z","source":"https://celestrak.org/NORAD/elements/gp.php?GROUP=oneweb&FORMAT=JSON","constellation":"oneweb","records":[{"OBJECT_NAME":"ONEWEB-0320","OBJECT_ID":"2021-083E","EPOCH":"2026-07-15T20:14:37.440960","CLASSIFICATION_TYPE":"U","MEAN_MOTION":13.18687533,"ECCENTRICITY":0.0001941,"INCLINATION":87.9187,"RA_OF_ASC_NODE":329.7618,"ARG_OF_PERICENTER":99.1749,"MEAN_ANOMALY":260.9603,"EPHEMERIS_TYPE":0,"NORAD_CAT_ID":49190,"ELEMENT_SET_NO":999,"REV_AT_EPOCH":23375,"BSTAR":0.000031883477,"MEAN_MOTION_DOT":2.5e-7,"MEAN_MOTION_DDOT":0},{"OBJECT_NAME":"ONEWEB-0321","OBJECT_ID":"2021-083F","EPOCH":"2026-07-15T03:43:37.691040","CLASSIFICATION_TYPE":"U","MEAN_MOTION":13.20773279,"ECCENTRICITY":0.00021432,"INCLINATION":87.9185,"RA_OF_ASC_NODE":268.8617,"ARG_OF_PERICENTER":104.3143,"MEAN_ANOMALY":255.8228,"EPHEMERIS_TYPE":0,"NORAD_CAT_ID":49191,"ELEMENT_SET_NO":999,"REV_AT_EPOCH":24052,"BSTAR":0.00026467634,"MEAN_MOTION_DOT":0.00000121,"MEAN_MOTION_DDOT":0},{"OBJECT_NAME":"ONEWEB-0322","OBJECT_ID":"2021-083G","EPOCH":"2026-07-15T20:59:04.514784","CLASSIFICATION_TYPE":"U","MEAN_MOTION":13.13469656,"ECCENTRICITY":0.00020662,"INCLINATION":87.8978,"RA_OF_ASC_NODE":314.5262,"ARG_OF_PERICENTER":113.1121,"MEAN_ANOMALY":247.0226,"EPHEMERIS_TYPE":0,"NORAD_CAT_ID":49192,"ELEMENT_SET_NO":999,"REV_AT_EPOCH":23468,"BSTAR":-0.000087336865,"MEAN_MOTION_DOT":-1.9e-7,"MEAN_MOTION_DDOT":0},{"OBJECT_NAME":"ONEWEB-0324","OBJECT_ID":"2021-083H","EPOCH":"2026-07-15T21:25:03.740160","CLASSIFICATION_TYPE":"U","MEAN_MOTION":13.18686501,"ECCENTRICITY":0.00020771,"INCLINATION":87.9199,"RA_OF_ASC_NODE":329.7428,"ARG_OF_PERICENTER":95.5921,"MEAN_ANOMALY":264.5448,"EPHEMERIS_TYPE":0,"NORAD_CAT_ID":49193,"ELEMENT_SET_NO":999,"REV_AT_EPOCH":23378,"BSTAR":-0.0001578763,"MEAN_MOTION_DOT":-4.9e-7,"MEAN_MOTION_DDOT":0},{"OBJECT_NAME":"ONEWEB-0325","OBJECT_ID":"2021-083J","EPOCH":"2026-07-15T21:29:54.211776","CLASSIFICATION_TYPE":"U","MEAN_MOTION":13.18687636,"ECCENTRICITY":0.00018108,"INCLINATION":87.9189,"RA_OF_ASC_NODE":329.7476,"ARG_OF_PERICENTER":99.9921,"MEAN_ANOMALY":260.1416,"EPHEMERIS_TYPE":0,"NORAD_CAT_ID":49194,"ELEMENT_SET_NO":999,"REV_AT_EPOCH":23379,"BSTAR":0.00004743639,"MEAN_MOTION_DOT":3.2e-7,"MEAN_MOTION_DDOT":0},{"OBJECT_NAME":"ONEWEB-0326","OBJECT_ID":"2021-083K","EPOCH":"2026-07-15T21:51:59.026176","CLASSIFICATION_TYPE":"U","MEAN_MOTION":13.18686207,"ECCENTRICITY":0.0001691,"INCLINATION":87.9197,"RA_OF_ASC_NODE":329.7446,"ARG_OF_PERICENTER":93.4768,"MEAN_ANOMALY":266.6558,"EPHEMERIS_TYPE":0,"NORAD_CAT_ID":49195,"ELEMENT_SET_NO":999,"REV_AT_EPOCH":23378,"BSTAR":-0.00023625047,"MEAN_MOTION_DOT":-8e-7,"MEAN_MOTION_DDOT":0},{"OBJECT_NAME":"ONEWEB-0327","OBJECT_ID":"2021-083L","EPOCH":"2026-07-15T21:51:34.812576","CLASSIFICATION_TYPE":"U","MEAN_MOTION":13.18686215,"ECCENTRICITY":0.00014983,"INCLINATION":87.9189,"RA_OF_ASC_NODE":329.7466,"ARG_OF_PERICENTER":93.8468,"MEAN_ANOMALY":266.2835,"EPHEMERIS_TYPE":0,"NORAD_CAT_ID":49196,"ELEMENT_SET_NO":999,"REV_AT_EPOCH":23380,"BSTAR":-0.00017287249,"MEAN_MOTION_DOT":-5.5e-7,"MEAN_MOTION_DDOT":0},{"OBJECT_NAME":"ONEWEB-0328","OBJECT_ID":"2021-083M","EPOCH":"2026-07-15T20:44:27.046752","CLASSIFICATION_TYPE":"U","MEAN_MOTION":13.13469534,"ECCENTRICITY":0.00020485,"INCLINATION":87.8989,"RA_OF_ASC_NODE":314.5041,"ARG_OF_PERICENTER":97.5035,"MEAN_ANOMALY":262.6327,"EPHEMERIS_TYPE":0,"NORAD_CAT_ID":49197,"ELEMENT_SET_NO":999,"REV_AT_EPOCH":23466,"BSTAR":0.00065882985,"MEAN_MOTION_DOT":0.00000253,"MEAN_MOTION_DDOT":0},{"OBJECT_NAME":"ONEWEB-0331","OBJECT_ID":"2021-083N","EPOCH":"2026-07-15T19:52:47.479584","CLASSIFICATION_TYPE":"U","MEAN_MOTION":13.18684316,"ECCENTRICITY":0.00017105,"INCLINATION":87.9199,"RA_OF_ASC_NODE":329.7548,"ARG_OF_PERICENTER":88.5452,"MEAN_ANOMALY":271.5876,"EPHEMERIS_TYPE":0,"NORAD_CAT_ID":49198,"ELEMENT_SET_NO":999,"REV_AT_EPOCH":23378,"BSTAR":-0.00015909866,"MEAN_MOTION_DOT":-5e-7,"MEAN_MOTION_DDOT":0},{"OBJECT_NAME":"ONEWEB-0333","OBJECT_ID":"2021-083P","EPOCH":"2026-07-15T20:37:08.250528","CLASSIFICATION_TYPE":"U","MEAN_MOTION":13.13469688,"ECCENTRICITY":0.00018657,"INCLINATION":87.898,"RA_OF_ASC_NODE":314.5289,"ARG_OF_PERICENTER":100.4829,"MEAN_ANOMALY":259.651,"EPHEMERIS_TYPE":0,"NORAD_CAT_ID":49199,"ELEMENT_SET_NO":999,"REV_AT_EPOCH":23467,"BSTAR":0.00091893667,"MEAN_MOTION_DOT":0.00000348,"MEAN_MOTION_DDOT":0},{"OBJECT_NAME":"ONEWEB-0334","OBJECT_ID":"2021-083Q","EPOCH":"2026-07-15T05:53:18.428352","CLASSIFICATION_TYPE":"U","MEAN_MOTION":13.20769592,"ECCENTRICITY":0.0002484,"INCLINATION":87.9185,"RA_OF_ASC_NODE":268.8544,"ARG_OF_PERICENTER":117.8612,"MEAN_ANOMALY":242.2773,"EPHEMERIS_TYPE":0,"NORAD_CAT_ID":49200,"ELEMENT_SET_NO":999,"REV_AT_EPOCH":24049,"BSTAR":0.0002196883,"MEAN_MOTION_DOT":0.00000102,"MEAN_MOTION_DDOT":0},{"OBJECT_NAME":"ONEWEB-0335","OBJECT_ID":"2021-083R","EPOCH":"2026-07-15T20:29:49.318656","CLASSIFICATION_TYPE":"U","MEAN_MOTION":13.13468911,"ECCENTRICITY":0.000183,"INCLINATION":87.8976,"RA_OF_ASC_NODE":314.5273,"ARG_OF_PERICENTER":95.2512,"MEAN_ANOMALY":264.8826,"EPHEMERIS_TYPE":0,"NORAD_CAT_ID":49201,"ELEMENT_SET_NO":999,"REV_AT_EPOCH":23468,"BSTAR":0.00085385191,"MEAN_MOTION_DOT":0.00000325,"MEAN_MOTION_DDOT":0},{"OBJECT_NAME":"ONEWEB-0336","OBJECT_ID":"2021-083S","EPOCH":"2026-07-15T19:48:22.190112","CLASSIFICATION_TYPE":"U","MEAN_MOTION":13.13469343,"ECCENTRICITY":0.00018362,"INCLINATION":87.8976,"RA_OF_ASC_NODE":314.528,"ARG_OF_PERICENTER":90.9707,"MEAN_ANOMALY":269.1633,"EPHEMERIS_TYPE":0,"NORAD_CAT_ID":49202,"ELEMENT_SET_NO":999,"REV_AT_EPOCH":23467,"BSTAR":-0.00067473366,"MEAN_MOTION_DOT":-0.00000234,"MEAN_MOTION_DDOT":0},{"OBJECT_NAME":"ONEWEB-0337","OBJECT_ID":"2021-083T","EPOCH":"2026-07-15T20:02:48.928992","CLASSIFICATION_TYPE":"U","MEAN_MOTION":13.13469605,"ECCENTRICITY":0.00020704,"INCLINATION":87.8976,"RA_OF_ASC_NODE":314.5315,"ARG_OF_PERICENTER":95.0727,"MEAN_ANOMALY":265.0638,"EPHEMERIS_TYPE":0,"NORAD_CAT_ID":49203,"ELEMENT_SET_NO":999,"REV_AT_EPOCH":23467,"BSTAR":-0.000085972066,"MEAN_MOTION_DOT":-1.9e-7,"MEAN_MOTION_DDOT":0},{"OBJECT_NAME":"ONEWEB-0338","OBJECT_ID":"2021-083U","EPOCH":"2026-07-15T14:26:02.073696","CLASSIFICATION_TYPE":"U","MEAN_MOTION":13.20770214,"ECCENTRICITY":0.00021513,"INCLINATION":87.9181,"RA_OF_ASC_NODE":268.7843,"ARG_OF_PERICENTER":107.1733,"MEAN_ANOMALY":252.9636,"EPHEMERIS_TYPE":0,"NORAD_CAT_ID":49204,"ELEMENT_SET_NO":999,"REV_AT_EPOCH":24056,"BSTAR":0.00010253691,"MEAN_MOTION_DOT":5.5e-7,"MEAN_MOTION_DDOT":0},{"OBJECT_NAME":"ONEWEB-0339","OBJECT_ID":"2021-083V","EPOCH":"2026-07-15T18:25:29.993664","CLASSIFICATION_TYPE":"U","MEAN_MOTION":13.13469359,"ECCENTRICITY":0.00021634,"INCLINATION":87.8978,"RA_OF_ASC_NODE":314.5382,"ARG_OF_PERICENTER":106.747,"MEAN_ANOMALY":253.3896,"EPHEMERIS_TYPE":0,"NORAD_CAT_ID":49205,"ELEMENT_SET_NO":999,"REV_AT_EPOCH":23464,"BSTAR":0.00050212105,"MEAN_MOTION_DOT":0.00000196,"MEAN_MOTION_DDOT":0}]}
